NORAD_CAT_ID,OBJECT_NAME,OBJECT_TYPE,EPOCH,MEAN_MOTION,ECCENTRICITY,INCLINATION,RA_OF_ASC_NODE,ARG_OF_PERICENTER,MEAN_ANOMALY,BSTAR,MEAN_MOTION_DOT,MEAN_MOTION_DDOT,TLE_LINE0,TLE_LINE1,TLE_LINE2,SEMIMAJOR_AXIS,PERIOD,APOGEE,PERIGEE,DECAYED
51974.0,STARLINK-3672,PAYLOAD,2023-01-05 05:16:43,15.08852628,0.0003128,53.2167,194.1798,40.1502,319.9721,0.00017349,2.475e-05,0.0,0 STARLINK-3672,1 51974U 22025U   23005.21994252  .00002475  00000-0  17349-3 0  9996,2 51974  53.2167 194.1798 0003128  40.1502 319.9721 15.08852628 46150,6917.842,95.437,541.871,537.543,0.0
51974.0,STARLINK-3672,PAYLOAD,2023-01-05 14:49:02,15.08846167,0.0003143,53.2164,192.3959,42.4491,317.6744,5.9838e-05,6.64e-06,0.0,0 STARLINK-3672,1 51974U 22025U   23005.61738711  .00000664  00000-0  59838-4 0  9994,2 51974  53.2164 192.3959 0003143  42.4491 317.6744 15.08846167 46213,6917.861999999999,95.437,541.901,537.552,0.0
51974.0,STARLINK-3672,PAYLOAD,2023-01-06 05:07:30,15.08843923,0.0003157,53.2163,189.72,42.8172,317.3066,1.091e-05,-1.15e-06,0.0,0 STARLINK-3672,1 51974U 22025U   23006.21354658 -.00000115  00000-0  10910-4 0  9995,2 51974  53.2163 189.7200 0003157  42.8172 317.3066 15.08843923 47397,6917.868,95.437,541.9169999999998,537.549,0.0
51974.0,STARLINK-3672,PAYLOAD,2023-01-06 14:39:49,15.08842741,0.000312,53.2168,187.9358,43.7767,316.3472,-4.6215e-05,-1.024e-05,0.0,0 STARLINK-3672,1 51974U 22025U   23006.61098701 -.00001024  00000-0 -46215-4 0  9991,2 51974  53.2168 187.9358 0003120  43.7767 316.3472 15.08842741 46369,6917.871999999999,95.437,541.895,537.5790000000002,0.0
51974.0,STARLINK-3672,PAYLOAD,2023-01-07 04:58:17,15.08844825,0.0003179,53.2163,185.2596,43.7609,316.3635,-1.3699999999999998e-05,-5.07e-06,0.0,0 STARLINK-3672,1 51974U 22025U   23007.20714370 -.00000507  00000-0 -13700-4 0  9992,2 51974  53.2163 185.2596 0003179  43.7609 316.3635 15.08844825 46454,6917.866,95.437,541.93,537.531,0.0
51974.0,STARLINK-3672,PAYLOAD,2023-01-07 11:19:48,15.08858329,0.0003184,53.2162,184.0695,43.1512,316.9729,-9.8074e-05,-1.85e-05,0.0,0 STARLINK-3672,1 51974U 22025U   23007.47209464 -.00001850  00000-0 -98074-4 0  9993,2 51974  53.2162 184.0695 0003184  43.1512 316.9729 15.08858329 47582,6917.824000000001,95.436,541.8919999999998,537.487,0.0
51974.0,STARLINK-3672,PAYLOAD,2023-01-07 17:41:21,15.08854093,0.0003244,53.2148,182.8789,44.0742,316.0509,0.00014493,2.02e-05,0.0,0 STARLINK-3672,1 51974U 22025U   23007.73705063  .00002020  00000-0  14493-3 0  9998,2 51974  53.2148 182.8789 0003244  44.0742 316.0509 15.08854093 46533,6917.837,95.437,541.946,537.4580000000002,0.0
51974.0,STARLINK-3672,PAYLOAD,2023-01-08 04:49:04,15.08840908,0.0002955,53.2171,180.7987,38.6053,321.515,6.2124e-06,-1.9e-06,0.0,0 STARLINK-3672,1 51974U 22025U   23008.20074157 -.00000190  00000-0  62124-5 0  9997,2 51974  53.2171 180.7987 0002955  38.6053 321.5150 15.08840908 47699,6917.8780000000015,95.437,541.7869999999998,537.698,0.0
51974.0,STARLINK-3672,PAYLOAD,2023-01-08 11:10:36,15.08847212,0.0003441,53.2163,179.6123,42.5281,317.5977,-3.5091999999999995e-05,-8.48e-06,0.0,0 STARLINK-3672,1 51974U 22025U   23008.46570068 -.00000848  00000-0 -35092-4 0  9991,2 51974  53.2163 179.6123 0003441  42.5281 317.5977 15.08847212 46648,6917.858,95.437,542.104,537.3430000000002,0.0
51974.0,STARLINK-3672,PAYLOAD,2023-01-08 14:21:22,15.08843397,0.0003148,53.2166,179.0158,41.2672,318.8558,3.0204e-05,1.92e-06,0.0,0 STARLINK-3672,1 51974U 22025U   23008.59817993  .00000192  00000-0  30204-4 0  9996,2 51974  53.2166 179.0158 0003148  41.2672 318.8558 15.08843397 46668,6917.87,95.437,541.913,537.557,0.0
51974.0,STARLINK-3672,PAYLOAD,2023-01-09 11:01:23,15.08843168,0.0003045,53.216,175.1498,39.1503,320.9709,2.479e-05,1.06e-06,0.0,0 STARLINK-3672,1 51974U 22025U   23009.45929967  .00000106  00000-0  24790-4 0  9995,2 51974  53.2160 175.1498 0003045  39.1503 320.9709 15.08843168 46793,6917.871,95.437,541.842,537.629,0.0
51974.0,STARLINK-3672,PAYLOAD,2023-01-09 17:22:56,15.08842951,0.0002947,53.216,173.9601,39.1495,320.971,2.3404e-05,8.4e-07,0.0,0 STARLINK-3672,1 51974U 22025U   23009.72425941  .00000084  00000-0  23404-4 0  9994,2 51974  53.2160 173.9601 0002947  39.1495 320.9710 15.08842951 47922,6917.871,95.437,541.775,537.698,0.0
51974.0,STARLINK-3672,PAYLOAD,2023-01-10 17:13:42,15.08844175,0.0002933,53.2158,169.4996,38.6914,321.4288,7.8943e-05,9.68e-06,0.0,0 STARLINK-3672,1 51974U 22025U   23010.71785619  .00000968  00000-0  78943-4 0  9995,2 51974  53.2158 169.4996 0002933  38.6914 321.4288 15.08844175 46982,6917.868,95.437,541.762,537.7040000000002,0.0
51974.0,STARLINK-3672,PAYLOAD,2023-01-11 17:04:29,15.08842054,0.0002994,53.2156,165.0385,40.1587,319.9626,9.7645e-05,1.266e-05,0.0,0 STARLINK-3672,1 51974U 22025U   23011.71145625  .00001266  00000-0  97645-4 0  9995,2 51974  53.2156 165.0385 0002994  40.1587 319.9626 15.08842054 48226,6917.874,95.437,541.81,537.668,0.0
51974.0,STARLINK-3672,PAYLOAD,2023-01-12 18:30:41,15.0882282,0.0002951,53.2165,160.2804,35.5635,324.5553,-0.00011541,-2.124e-05,0.0,0 STARLINK-3672,1 51974U 22025U   23012.77131506 -.00002124  00000-0 -11541-3 0  9991,2 51974  53.2165 160.2804 0002951  35.5635 324.5553 15.08822820 48381,6917.933000000001,95.439,541.839,537.756,0.0
51974.0,STARLINK-3672,PAYLOAD,2023-01-13 13:35:19,15.08826801,0.0002841,53.2187,156.7107,28.9905,331.1244,-0.00015442,-2.745e-05,0.0,0 STARLINK-3672,1 51974U 22025U   23013.56620153 -.00002745  00000-0 -15442-3 0  9993,2 51974  53.2187 156.7107 0002841  28.9905 331.1244 15.08826801 47412,6917.920999999999,95.438,541.751,537.82,0.0
51974.0,STARLINK-3672,PAYLOAD,2023-01-13 18:21:28,15.08831864,0.0002984,53.2163,155.8203,38.1214,321.9988,2.9568e-05,1.82e-06,0.0,0 STARLINK-3672,1 51974U 22025U   23013.76491610  .00000182  00000-0  29568-4 0  9995,2 51974  53.2163 155.8203 0002984  38.1214 321.9988 15.08831864 48538,6917.905,95.438,541.835,537.706,0.0
51974.0,STARLINK-3672,PAYLOAD,2023-01-14 18:12:15,15.08844715,0.0002703,53.2158,151.3597,39.1368,320.9819,0.00048256,7.401e-05,0.0,0 STARLINK-3672,1 51974U 22025U   23014.75851450  .00007401  00000-0  48256-3 0  9992,2 51974  53.2158 151.3597 0002703  39.1368 320.9819 15.08844715 48686,6917.866,95.437,541.601,537.861,0.0
51974.0,STARLINK-3672,PAYLOAD,2023-01-15 02:09:11,15.08835976,0.0002484999999999,53.2144,149.8745,42.066,318.0523,0.00031581,4.741e-05,0.0,0 STARLINK-3672,1 51974U 22025U   23015.08972036  .00004741  00000-0  31581-3 0  9990,2 51974  53.2144 149.8745 0002485  42.0660 318.0523 15.08835976 48738,6917.893,95.438,541.477,538.039,0.0
51974.0,STARLINK-3672,PAYLOAD,2023-01-15 13:16:53,15.08846076,0.0002479,53.2139,147.7941,42.8467,317.2718,0.00030695,4.601e-05,0.0,0 STARLINK-3672,1 51974U 22025U   23015.55339709  .00004601  00000-0  30695-3 0  9996,2 51974  53.2139 147.7941 0002479  42.8467 317.2718 15.08846076 47710,6917.861999999999,95.437,541.442,538.012,0.0
51974.0,STARLINK-3672,PAYLOAD,2023-01-15 16:27:39,15.08863308,0.0002546,53.2148,147.1967,44.3943,315.7253,0.0005912,9.139e-05,0.0,0 STARLINK-3672,1 51974U 22025U   23015.68587108  .00009139  00000-0  59120-3 0  9993,2 51974  53.2148 147.1967 0002546  44.3943 315.7253 15.08863308 48820,6917.809,95.436,541.435,537.913,0.0
51974.0,STARLINK-3672,PAYLOAD,2023-01-16 03:35:21,15.08850702,0.0002355,53.2141,145.1149,53.0461,307.0747,0.00023616,3.473e-05,0.0,0 STARLINK-3672,1 51974U 22025U   23016.14955292  .00003473  00000-0  23616-3 0  9994,2 51974  53.2141 145.1149 0002355  53.0461 307.0747 15.08850702 48896,6917.848000000001,95.437,541.342,538.0840000000001,0.0
51974.0,STARLINK-3672,PAYLOAD,2023-01-16 13:07:40,15.08842249,0.0002053,53.2151,143.3316,53.8403,306.2779,0.00030913,4.635e-05,0.0,0 STARLINK-3672,1 51974U 22025U   23016.54699516  .00004635  00000-0  30913-3 0  9991,2 51974  53.2151 143.3316 0002053  53.8403 306.2779 15.08842249 48952,6917.874,95.437,541.159,538.318,0.0
51974.0,STARLINK-3672,PAYLOAD,2023-01-16 14:43:03,15.0884885,0.000213,53.2151,143.0342,53.7039,306.415,0.000614,9.5e-05,0.0,0 STARLINK-3672,1 51974U 22025U   23016.61323455  .00009500  00000-0  61400-3 0  9996,2 51974  53.2151 143.0342 0002130  53.7039 306.4150 15.08848850 47877,6917.853,95.437,541.192,538.245,0.0
51974.0,STARLINK-3672,PAYLOAD,2023-01-17 03:26:09,15.08834974,0.0002463,53.2139,140.656,60.812,299.3118,0.00052642,8.099e-05,0.0,0 STARLINK-3672,1 51974U 22025U   23017.14316370  .00008099  00000-0  52642-3 0  9993,2 51974  53.2139 140.6560 0002463  60.8120 299.3118 15.08834974 49044,6917.896,95.438,541.465,538.057,0.0
51974.0,STARLINK-3672,PAYLOAD,2023-01-17 14:33:51,15.08828359,0.0002039,53.2151,138.5734,65.8509,294.2696,0.0020029,0.00031722,0.0,0 STARLINK-3672,1 51974U 22025U   23017.60685176  .00031722  00000-0  20029-2 0  9999,2 51974  53.2151 138.5734 0002039  65.8509 294.2696 15.08828359 49115,6917.916,95.438,541.192,538.37,0.0
51974.0,STARLINK-3672,PAYLOAD,2023-01-17 16:09:15,15.08832465,0.0002092,53.2152,138.2762,64.835,295.2859,0.0024232,0.00038481,0.0,0 STARLINK-3672,1 51974U 22025U   23017.67309286  .00038481  00000-0  24232-2 0  9990,2 51974  53.2152 138.2762 0002092  64.8350 295.2859 15.08832465 48031,6917.903,95.438,541.216,538.321,0.0
51974.0,STARLINK-3672,PAYLOAD,2023-01-18 08:03:06,15.088654,0.0002432,53.2158,135.3029,64.215,295.9092,0.0025926,0.00041245,0.0,0 STARLINK-3672,1 51974U 22025U   23018.33549522  .00041245  00000-0  25926-2 0  9996,2 51974  53.2158 135.3029 0002432  64.2150 295.9092 15.08865400 49224,6917.803000000001,95.436,541.35,537.985,0.0
51974.0,STARLINK-3672,PAYLOAD,2023-01-18 14:24:38,15.08871595,0.0002186,53.2159,134.113,63.7324,296.3893,0.0017823,0.00028216,0.0,0 STARLINK-3672,1 51974U 22025U   23018.60044815  .00028216  00000-0  17823-2 0  9991,2 51974  53.2159 134.1130 0002186  63.7324 296.3893 15.08871595 48177,6917.784000000001,95.436,541.161,538.137,0.0
